COSMOS 2251 DEB         
1 33793U 93036AJ  26062.28712909  .00001793  00000+0  70945-3 0  9997
2 33793  73.9833   3.4810 0077072 136.8809  14.7405 14.28039525883564
COSMOS 2251 DEB         
1 33795U 93036AL  26062.02170641  .00024578  00000+0  14946-2 0  9996
2 33795  74.0289 271.5779 0030318 331.9497 178.3670 15.09972889912314
COSMOS 2251 DEB         
1 33797U 93036AN  26062.64069219  .00002566  00000+0  54678-3 0  9994
2 33797  74.0444 241.1497 0062573 307.4709 124.7728 14.58274634901640
COSMOS 2251 DEB         
1 33798U 93036AP  26062.78239413  .00000705  00000+0  20091-3 0  9990
2 33798  74.0319 344.9390 0090033  86.3256 305.7427 14.44725652897645
COSMOS 2251 DEB         
1 33799U 93036AQ  26062.73789990  .00013563  00000+0  17146-2 0  9998
2 33799  74.0301 282.0507 0023020 328.3822 102.9328 14.81699550900100
COSMOS 2251 DEB         
1 33805U 93036AW  26062.72034686  .00001356  00000+0  29356-3 0  9994
2 33805  74.0314 157.2545 0062061 323.7009  35.9952 14.58076851904076
COSMOS 2251 DEB         
1 33811U 93036BC  26062.66784691  .00032068  00000+0  20052-2 0  9999
2 33811  73.8356 134.3845 0028540 211.0436 309.0909 15.08949438912377
COSMOS 2251 DEB         
1 33816U 93036BH  26062.44089089  .00001022  00000+0  74570-3 0  9990
2 33816  73.8975 328.5977 0265475 326.0681  32.3699 13.81939646857886
COSMOS 2251 DEB         
1 33818U 93036BK  26062.25847311  .00074466  00000+0  32710-2 0  9992
2 33818  74.0821 358.7778 0017776 304.2045  55.7468 15.21414264910834
COSMOS 2251 DEB         
1 33819U 93036BL  26062.09435664  .00002214  00000+0  78764-3 0  9991
2 33819  74.1779  64.4569 0092184 263.1320 162.8811 14.32535527886462
COSMOS 2251 DEB         
1 33821U 93036BN  26062.14870928  .00042845  00000+0  13715-2 0  9994
2 33821  74.0312 332.0997 0043427 339.3316  20.6128 15.31259447762293
COSMOS 2251 DEB         
1 33822U 93036BP  26062.44622566  .00003214  00000+0  15463-2 0  9990
2 33822  74.0695  51.1303 0147202  78.2151  77.8339 14.13643421871949
COSMOS 2251 DEB         
1 33823U 93036BQ  26062.30404444  .00001259  00000+0  73674-3 0  9995
2 33823  73.8121   8.1065 0206726 119.7841  31.3864 13.99172087867369
COSMOS 2251 DEB         
1 33825U 93036BS  26062.52227528  .00014075  00000+0  21651-2 0  9994
2 33825  73.9812 230.5085 0080479 179.3604 237.7395 14.71331402900678
COSMOS 2251 DEB         
1 33826U 93036BT  26061.99949030  .00008790  00000+0  20468-2 0  9996
2 33826  74.0619 258.8813 0084321 283.6781 229.1222 14.52781558889347
COSMOS 2251 DEB         
1 33828U 93036BV  26062.78312699  .00001534  00000+0  44847-3 0  9998
2 33828  74.0442  87.3512 0027334 146.1476 328.7957 14.44631590894831
