[{"OBJECT_NAME":"COSMOS 2251 DEB","OBJECT_ID":"1993-036AJ","EPOCH":"2026-03-03T06:53:27.953376","MEAN_MOTION":14.28039525,"ECCENTRICITY":0.00770722,"INCLINATION":73.9833,"RA_OF_ASC_NODE":3.481,"ARG_OF_PERICENTER":136.8809,"MEAN_ANOMALY":14.7405,"EPHEMERIS_TYPE":0,"CLASSIFICATION_TYPE":"U","NORAD_CAT_ID":33793,"ELEMENT_SET_NO":999,"REV_AT_EPOCH":88356,"BSTAR":0.00070944818,"MEAN_MOTION_DOT":1.793e-5,"MEAN_MOTION_DDOT":0},{"OBJECT_NAME":"COSMOS 2251 DEB","OBJECT_ID":"1993-036AL","EPOCH":"2026-03-03T00:31:15.433824","MEAN_MOTION":15.09972889,"ECCENTRICITY":0.00303183,"INCLINATION":74.0289,"RA_OF_ASC_NODE":271.5779,"ARG_OF_PERICENTER":331.9497,"MEAN_ANOMALY":178.367,"EPHEMERIS_TYPE":0,"CLASSIFICATION_TYPE":"U","NORAD_CAT_ID":33795,"ELEMENT_SET_NO":999,"REV_AT_EPOCH":91231,"BSTAR":0.0014946443,"MEAN_MOTION_DOT":0.00024578,"MEAN_MOTION_DDOT":0},{"OBJECT_NAME":"COSMOS 2251 DEB","OBJECT_ID":"1993-036AN","EPOCH":"2026-03-03T15:22:35.805216","MEAN_MOTION":14.58274634,"ECCENTRICITY":0.0062573,"INCLINATION":74.0444,"RA_OF_ASC_NODE":241.1497,"ARG_OF_PERICENTER":307.4709,"MEAN_ANOMALY":124.7728,"EPHEMERIS_TYPE":0,"CLASSIFICATION_TYPE":"U","NORAD_CAT_ID":33797,"ELEMENT_SET_NO":999,"REV_AT_EPOCH":90164,"BSTAR":0.00054678,"MEAN_MOTION_DOT":2.566e-5,"MEAN_MOTION_DDOT":0},{"OBJECT_NAME":"COSMOS 2251 DEB","OBJECT_ID":"1993-036AP","EPOCH":"2026-03-03T18:46:38.852832","MEAN_MOTION":14.44725652,"ECCENTRICITY":0.0090033,"INCLINATION":74.0319,"RA_OF_ASC_NODE":344.939,"ARG_OF_PERICENTER":86.3256,"MEAN_ANOMALY":305.7427,"EPHEMERIS_TYPE":0,"CLASSIFICATION_TYPE":"U","NORAD_CAT_ID":33798,"ELEMENT_SET_NO":999,"REV_AT_EPOCH":89764,"BSTAR":0.00020091,"MEAN_MOTION_DOT":7.05e-6,"MEAN_MOTION_DDOT":0},{"OBJECT_NAME":"COSMOS 2251 DEB","OBJECT_ID":"1993-036AQ","EPOCH":"2026-03-03T17:42:34.551360","MEAN_MOTION":14.8169955,"ECCENTRICITY":0.002302,"INCLINATION":74.0301,"RA_OF_ASC_NODE":282.0507,"ARG_OF_PERICENTER":328.3822,"MEAN_ANOMALY":102.9328,"EPHEMERIS_TYPE":0,"CLASSIFICATION_TYPE":"U","NORAD_CAT_ID":33799,"ELEMENT_SET_NO":999,"REV_AT_EPOCH":90010,"BSTAR":0.0017146,"MEAN_MOTION_DOT":0.00013563,"MEAN_MOTION_DDOT":0},{"OBJECT_NAME":"COSMOS 2251 DEB","OBJECT_ID":"1993-036AW","EPOCH":"2026-03-03T17:17:17.968704","MEAN_MOTION":14.58076851,"ECCENTRICITY":0.0062061,"INCLINATION":74.0314,"RA_OF_ASC_NODE":157.2545,"ARG_OF_PERICENTER":323.7009,"MEAN_ANOMALY":35.9952,"EPHEMERIS_TYPE":0,"CLASSIFICATION_TYPE":"U","NORAD_CAT_ID":33805,"ELEMENT_SET_NO":999,"REV_AT_EPOCH":90407,"BSTAR":0.00029356,"MEAN_MOTION_DOT":1.356e-5,"MEAN_MOTION_DDOT":0},{"OBJECT_NAME":"COSMOS 2251 DEB","OBJECT_ID":"1993-036BC","EPOCH":"2026-03-03T16:01:41.973024","MEAN_MOTION":15.08949438,"ECCENTRICITY":0.002854,"INCLINATION":73.8356,"RA_OF_ASC_NODE":134.3845,"ARG_OF_PERICENTER":211.0436,"MEAN_ANOMALY":309.0909,"EPHEMERIS_TYPE":0,"CLASSIFICATION_TYPE":"U","NORAD_CAT_ID":33811,"ELEMENT_SET_NO":999,"REV_AT_EPOCH":91237,"BSTAR":0.0020052,"MEAN_MOTION_DOT":0.00032068,"MEAN_MOTION_DDOT":0},{"OBJECT_NAME":"COSMOS 2251 DEB","OBJECT_ID":"1993-036BH","EPOCH":"2026-03-03T10:34:52.972896","MEAN_MOTION":13.81939646,"ECCENTRICITY":0.0265475,"INCLINATION":73.8975,"RA_OF_ASC_NODE":328.5977,"ARG_OF_PERICENTER":326.0681,"MEAN_ANOMALY":32.3699,"EPHEMERIS_TYPE":0,"CLASSIFICATION_TYPE":"U","NORAD_CAT_ID":33816,"ELEMENT_SET_NO":999,"REV_AT_EPOCH":85788,"BSTAR":0.00074570079,"MEAN_MOTION_DOT":1.022e-5,"MEAN_MOTION_DDOT":0},{"OBJECT_NAME":"COSMOS 2251 DEB","OBJECT_ID":"1993-036BK","EPOCH":"2026-03-03T06:12:12.076704","MEAN_MOTION":15.21414264,"ECCENTRICITY":0.00177765,"INCLINATION":74.0821,"RA_OF_ASC_NODE":358.7778,"ARG_OF_PERICENTER":304.2045,"MEAN_ANOMALY":55.7468,"EPHEMERIS_TYPE":0,"CLASSIFICATION_TYPE":"U","NORAD_CAT_ID":33818,"ELEMENT_SET_NO":999,"REV_AT_EPOCH":91083,"BSTAR":0.0032710442,"MEAN_MOTION_DOT":0.00074466,"MEAN_MOTION_DDOT":0},{"OBJECT_NAME":"COSMOS 2251 DEB","OBJECT_ID":"1993-036BL","EPOCH":"2026-03-03T02:15:52.413696","MEAN_MOTION":14.32535527,"ECCENTRICITY":0.00921841,"INCLINATION":74.1779,"RA_OF_ASC_NODE":64.4569,"ARG_OF_PERICENTER":263.132,"MEAN_ANOMALY":162.8811,"EPHEMERIS_TYPE":0,"CLASSIFICATION_TYPE":"U","NORAD_CAT_ID":33819,"ELEMENT_SET_NO":999,"REV_AT_EPOCH":88646,"BSTAR":0.00078763992,"MEAN_MOTION_DOT":2.214e-5,"MEAN_MOTION_DDOT":0},{"OBJECT_NAME":"COSMOS 2251 DEB","OBJECT_ID":"1993-036BN","EPOCH":"2026-03-03T03:34:08.481792","MEAN_MOTION":15.31259447,"ECCENTRICITY":0.00434273,"INCLINATION":74.0312,"RA_OF_ASC_NODE":332.0997,"ARG_OF_PERICENTER":339.3316,"MEAN_ANOMALY":20.6128,"EPHEMERIS_TYPE":0,"CLASSIFICATION_TYPE":"U","NORAD_CAT_ID":33821,"ELEMENT_SET_NO":999,"REV_AT_EPOCH":76229,"BSTAR":0.0013715154,"MEAN_MOTION_DOT":0.00042845,"MEAN_MOTION_DDOT":0},{"OBJECT_NAME":"COSMOS 2251 DEB","OBJECT_ID":"1993-036BP","EPOCH":"2026-03-03T10:42:33.897024","MEAN_MOTION":14.13643421,"ECCENTRICITY":0.0147202,"INCLINATION":74.0695,"RA_OF_ASC_NODE":51.1303,"ARG_OF_PERICENTER":78.2151,"MEAN_ANOMALY":77.8339,"EPHEMERIS_TYPE":0,"CLASSIFICATION_TYPE":"U","NORAD_CAT_ID":33822,"ELEMENT_SET_NO":999,"REV_AT_EPOCH":87194,"BSTAR":0.001546315,"MEAN_MOTION_DOT":3.214e-5,"MEAN_MOTION_DDOT":0},{"OBJECT_NAME":"COSMOS 2251 DEB","OBJECT_ID":"1993-036BQ","EPOCH":"2026-03-03T07:17:49.439616","MEAN_MOTION":13.99172087,"ECCENTRICITY":0.0206726,"INCLINATION":73.8121,"RA_OF_ASC_NODE":8.1065,"ARG_OF_PERICENTER":119.7841,"MEAN_ANOMALY":31.3864,"EPHEMERIS_TYPE":0,"CLASSIFICATION_TYPE":"U","NORAD_CAT_ID":33823,"ELEMENT_SET_NO":999,"REV_AT_EPOCH":86736,"BSTAR":0.00073674494,"MEAN_MOTION_DOT":1.259e-5,"MEAN_MOTION_DDOT":0},{"OBJECT_NAME":"COSMOS 2251 DEB","OBJECT_ID":"1993-036BS","EPOCH":"2026-03-03T12:32:04.584192","MEAN_MOTION":14.71331402,"ECCENTRICITY":0.00804796,"INCLINATION":73.9812,"RA_OF_ASC_NODE":230.5085,"ARG_OF_PERICENTER":179.3604,"MEAN_ANOMALY":237.7395,"EPHEMERIS_TYPE":0,"CLASSIFICATION_TYPE":"U","NORAD_CAT_ID":33825,"ELEMENT_SET_NO":999,"REV_AT_EPOCH":90067,"BSTAR":0.0021651124,"MEAN_MOTION_DOT":0.00014075,"MEAN_MOTION_DDOT":0},{"OBJECT_NAME":"COSMOS 2251 DEB","OBJECT_ID":"1993-036BT","EPOCH":"2026-03-02T23:59:15.961920","MEAN_MOTION":14.52781558,"ECCENTRICITY":0.0084321,"INCLINATION":74.0619,"RA_OF_ASC_NODE":258.8813,"ARG_OF_PERICENTER":283.6781,"MEAN_ANOMALY":229.1222,"EPHEMERIS_TYPE":0,"CLASSIFICATION_TYPE":"U","NORAD_CAT_ID":33826,"ELEMENT_SET_NO":999,"REV_AT_EPOCH":88934,"BSTAR":0.0020468,"MEAN_MOTION_DOT":8.79e-5,"MEAN_MOTION_DDOT":0},{"OBJECT_NAME":"COSMOS 2251 DEB","OBJECT_ID":"1993-036BV","EPOCH":"2026-03-03T18:47:42.171936","MEAN_MOTION":14.4463159,"ECCENTRICITY":0.0027334,"INCLINATION":74.0442,"RA_OF_ASC_NODE":87.3512,"ARG_OF_PERICENTER":146.1476,"MEAN_ANOMALY":328.7957,"EPHEMERIS_TYPE":0,"CLASSIFICATION_TYPE":"U","NORAD_CAT_ID":33828,"ELEMENT_SET_NO":999,"REV_AT_EPOCH":89483,"BSTAR":0.00044847,"MEAN_MOTION_DOT":1.534e-5,"MEAN_MOTION_DDOT":0}]
